STARLINK-36745          
1 68257U 26054AB  26168.36736448  .00011683  00000+0  35629-3 0  9995
2 68257  53.1574 186.6617 0001227  77.3282 282.7858 15.34405494 14353
STARLINK-36890          
1 68258U 26054AC  26168.29857122  .00010854  00000+0  37796-3 0  9997
2 68258  53.1565 194.1310 0001616  96.7876 263.3309 15.30206952 14242
STARLINK-36323          
1 68259U 26054AD  26168.34828356  .00052043  00000+0  93654-3 0  9992
2 68259  53.1557 188.7531 0000849 135.0018 225.1060 15.49340127 14311
STARLINK-37056          
1 68260U 26054AE  26169.01893790  .00041406  00000+0  74775-3 0  9997
2 68260  53.1573 183.6717 0001310  85.6903 274.4256 15.49340680 14451
TEN-KOH 2               
1 68261U 25241B   26166.70419506  .00005304  00000+0  23027-3 0  9998
2 68261  51.6697 326.6857 0006067 137.6687 222.4761 15.23889978 14686
STARLINK-37162          
1 68262U 26055A   26168.36229443  .00005541  00000+0  17498-3 0  9994
2 68262  53.1571 214.7112 0001220  82.7053 277.4088 15.34402533 15211
STARLINK-37156          
1 68263U 26055B   26168.43422939  .00016877  00000+0  50944-3 0  9995
2 68263  53.1567 215.8776 0001009  86.2375 273.8743 15.34403519 15208
STARLINK-37163          
1 68264U 26055C   26168.41059933  .00014425  00000+0  43719-3 0  9993
2 68264  53.1567 214.3050 0000977  89.9215 270.1900 15.34404159 15222
STARLINK-37133          
1 68265U 26055D   26168.44053710  .00017564  00000+0  53024-3 0  9991
2 68265  53.1566 215.9130 0001197  90.0413 270.0727 15.34369766 15204
STARLINK-37042          
1 68266U 26055E   26168.43585591  .00011919  00000+0  36312-3 0  9997
2 68266  53.1573 214.4598 0000995  70.0836 290.0274 15.34417854 15220
STARLINK-37103          
1 68267U 26055F   26168.44206795  .00016451  00000+0  49697-3 0  9991
2 68267  53.1577 213.7874 0001035  73.1443 286.9673 15.34399084 15230
STARLINK-36999          
1 68268U 26055G   26168.44627261  .00011235  00000+0  34309-3 0  9996
2 68268  53.1581 213.7852 0001247  79.8061 280.3083 15.34403871 15239
STARLINK-36962          
1 68269U 26055H   26168.38955335  .00007659  00000+0  23757-3 0  9996
2 68269  53.1581 214.1496 0001254  80.6002 279.5143 15.34401536 15224
STARLINK-37028          
1 68270U 26055J   26168.36278185  .00005203  00000+0  16502-3 0  9990
2 68270  53.1568 216.1391 0001237  87.1789 272.9355 15.34398790 15197
STARLINK-37029          
1 68271U 26055K   26169.11867911  .00020772  00000+0  62408-3 0  9990
2 68271  53.1581 210.9005 0001268  93.3862 266.7285 15.34406663 15330
STARLINK-36974          
1 68272U 26055L   26168.42169437  .00013834  00000+0  41959-3 0  9991
2 68272  53.1562 216.5323 0001139  68.1898 291.9225 15.34415583 15190
STARLINK-37019          
1 68273U 26055M   26168.41270089  .00014383  00000+0  43593-3 0  9993
2 68273  53.1565 214.3172 0001078  85.0438 275.0687 15.34405332 15222
STARLINK-37129          
1 68274U 26055N   26169.08299641  .00011022  00000+0  33673-3 0  9998
2 68274  53.1577 211.3876 0001349  56.3323 303.7808 15.34411630 15322
STARLINK-37123          
1 68275U 26055P   26168.42532369  .00013543  00000+0  41103-3 0  9990
2 68275  53.1566 214.3880 0001171  68.2734 291.8393 15.34415214 15227
STARLINK-37125          
1 68276U 26055Q   26168.42323312  .00025502  00000+0  76383-3 0  9993
2 68276  53.1566 214.3745 0000969  73.4206 286.6903 15.34379315 15224
STARLINK-36989          
1 68277U 26055R   26168.41480371  .00010482  00000+0  32090-3 0  9990
2 68277  53.1574 214.3125 0001139  99.4492 260.6640 15.34402622 15229
STARLINK-36982          
1 68278U 26055S   26168.41690889  .00014616  00000+0  44272-3 0  9996
2 68278  53.1568 214.3446 0001133  74.9513 285.1615 15.34410012 15221
STARLINK-36934          
1 68279U 26055T   26168.42111479  .00014359  00000+0  43512-3 0  9991
2 68279  53.1562 214.3686 0000944  69.6057 290.5047 15.34413231 15220
STARLINK-37070          
1 68280U 26055U   26168.45048516  .00034372  00000+0  10243-2 0  9998
2 68280  53.1577 213.8122 0001176  92.1013 268.0124 15.34385128 15238
STARLINK-37134          
1 68281U 26055V   26169.09821576  .00015813  00000+0  47806-3 0  9990
2 68281  53.1580 212.9044 0002323  49.1537 310.9667 15.34405451 15303
STARLINK-37160          
1 68282U 26055W   26169.12078032  .00021585  00000+0  64799-3 0  9999
2 68282  53.1571 210.8908 0001342  89.9897 270.1260 15.34407372 15334
STARLINK-37124          
1 68283U 26055X   26169.10452709  .00014010  00000+0  42518-3 0  9995
2 68283  53.1579 212.9379 0001564  82.2955 277.8225 15.34387538 15308
STARLINK-37159          
1 68284U 26055Y   26169.13188053  .00018881  00000+0  56850-3 0  9991
2 68284  53.1566 213.1366 0001354  90.2253 269.8905 15.34402681 15304
STARLINK-36725          
1 68285U 26055Z   26168.39434216  .00010486  00000+0  32098-3 0  9995
2 68285  53.1598 216.3274 0001390  75.9108 284.2049 15.34406415 15198
STARLINK-36998          
1 68286U 26055AA  26168.39797015  .00013120  00000+0  39868-3 0  9995
2 68286  53.1582 214.1996 0001317  73.2354 286.8793 15.34406044 15239
