OBJECT_NAME,OBJECT_ID,EPOCH,MEAN_MOTION,ECCENTRICITY,INCLINATION,RA_OF_ASC_NODE,ARG_OF_PERICENTER,MEAN_ANOMALY,EPHEMERIS_TYPE,CLASSIFICATION_TYPE,NORAD_CAT_ID,ELEMENT_SET_NO,REV_AT_EPOCH,BSTAR,MEAN_MOTION_DOT,MEAN_MOTION_DDOT
STARLINK-36745,2026-054AB,2026-06-17T08:49:00.291072,15.34405494,.00012277,53.1574,186.6617,77.3282,282.7858,0,U,68257,999,1435,.35629084E-3,.11683E-3,0
STARLINK-36890,2026-054AC,2026-06-17T07:09:56.553408,15.30206952,.00016161,53.1565,194.1310,96.7876,263.3309,0,U,68258,999,1424,.37796371E-3,.10854E-3,0
STARLINK-36323,2026-054AD,2026-06-17T08:21:31.699584,15.49340127,.00008499,53.1557,188.7531,135.0018,225.1060,0,U,68259,999,1431,.93654359E-3,.52043E-3,0
STARLINK-37056,2026-054AE,2026-06-18T00:27:16.234560,15.49340680,.00013106,53.1573,183.6717,85.6903,274.4256,0,U,68260,999,1445,.74774899E-3,.41406E-3,0
TEN-KOH 2,2025-241B,2026-06-15T16:54:02.453184,15.23889978,.00060673,51.6697,326.6857,137.6687,222.4761,0,U,68261,999,1468,.23026514E-3,.5304E-4,0
STARLINK-37162,2026-055A,2026-06-17T08:41:42.238752,15.34402533,.00012203,53.1571,214.7112,82.7053,277.4088,0,U,68262,999,1521,.17498086E-3,.5541E-4,0
STARLINK-37156,2026-055B,2026-06-17T10:25:17.419296,15.34403519,.00010094,53.1567,215.8776,86.2375,273.8743,0,U,68263,999,1520,.50943526E-3,.16877E-3,0
STARLINK-37163,2026-055C,2026-06-17T09:51:15.782112,15.34404159,.00009778,53.1567,214.3050,89.9215,270.1900,0,U,68264,999,1522,.4371878E-3,.14425E-3,0
STARLINK-37133,2026-055D,2026-06-17T10:34:22.405440,15.34369766,.00011978,53.1566,215.9130,90.0413,270.0727,0,U,68265,999,1520,.53024109E-3,.17564E-3,0
STARLINK-37042,2026-055E,2026-06-17T10:27:37.950624,15.34417854,.00009953,53.1573,214.4598,70.0836,290.0274,0,U,68266,999,1522,.36311536E-3,.11919E-3,0
STARLINK-37103,2026-055F,2026-06-17T10:36:34.670880,15.34399084,.00010355,53.1577,213.7874,73.1443,286.9673,0,U,68267,999,1523,.49696582E-3,.16451E-3,0
STARLINK-36999,2026-055G,2026-06-17T10:42:37.953504,15.34403871,.00012479,53.1581,213.7852,79.8061,280.3083,0,U,68268,999,1523,.34309355E-3,.11235E-3,0
STARLINK-36962,2026-055H,2026-06-17T09:20:57.409440,15.34401536,.00012541,53.1581,214.1496,80.6002,279.5143,0,U,68269,999,1522,.23756877E-3,.7659E-4,0
STARLINK-37028,2026-055J,2026-06-17T08:42:24.351840,15.34398790,.0001237,53.1568,216.1391,87.1789,272.9355,0,U,68270,999,1519,.16501831E-3,.5203E-4,0
STARLINK-37029,2026-055K,2026-06-18T02:50:53.875104,15.34406663,.00012682,53.1581,210.9005,93.3862,266.7285,0,U,68271,999,1533,.62407727E-3,.20772E-3,0
STARLINK-36974,2026-055L,2026-06-17T10:07:14.393568,15.34415583,.00011392,53.1562,216.5323,68.1898,291.9225,0,U,68272,999,1519,.41959236E-3,.13834E-3,0
STARLINK-37019,2026-055M,2026-06-17T09:54:17.356896,15.34405332,.00010783,53.1565,214.3172,85.0438,275.0687,0,U,68273,999,1522,.43593405E-3,.14383E-3,0
STARLINK-37129,2026-055N,2026-06-18T01:59:30.889824,15.34411630,.00013498,53.1577,211.3876,56.3323,303.7808,0,U,68274,999,1532,.33673131E-3,.11022E-3,0
STARLINK-37123,2026-055P,2026-06-17T10:12:27.966816,15.34415214,.00011717,53.1566,214.3880,68.2734,291.8393,0,U,68275,999,1522,.41102838E-3,.13543E-3,0
STARLINK-37125,2026-055Q,2026-06-17T10:09:27.341568,15.34379315,.00009694,53.1566,214.3745,73.4206,286.6903,0,U,68276,999,1522,.76383276E-3,.25502E-3,0
STARLINK-36989,2026-055R,2026-06-17T09:57:19.040544,15.34402622,.0001139,53.1574,214.3125,99.4492,260.6640,0,U,68277,999,1522,.32090049E-3,.10482E-3,0
STARLINK-36982,2026-055S,2026-06-17T10:00:20.928096,15.34410012,.00011337,53.1568,214.3446,74.9513,285.1615,0,U,68278,999,1522,.4427191E-3,.14616E-3,0
STARLINK-36934,2026-055T,2026-06-17T10:06:24.317856,15.34413231,.00009447,53.1562,214.3686,69.6057,290.5047,0,U,68279,999,1522,.43511687E-3,.14359E-3,0
STARLINK-37070,2026-055U,2026-06-17T10:48:41.917824,15.34385128,.0001176,53.1577,213.8122,92.1013,268.0124,0,U,68280,999,1523,.10242554E-2,.34372E-3,0
STARLINK-37134,2026-055V,2026-06-18T02:21:25.841664,15.34405451,.00023235,53.1580,212.9044,49.1537,310.9667,0,U,68281,999,1530,.47805939E-3,.15813E-3,0
STARLINK-37160,2026-055W,2026-06-18T02:53:55.419648,15.34407372,.00013428,53.1571,210.8908,89.9897,270.1260,0,U,68282,999,1533,.64798916E-3,.21585E-3,0
STARLINK-37124,2026-055X,2026-06-18T02:30:31.140576,15.34387538,.00015645,53.1579,212.9379,82.2955,277.8225,0,U,68283,999,1530,.4251809E-3,.1401E-3,0
STARLINK-37159,2026-055Y,2026-06-18T03:09:54.477792,15.34402681,.00013542,53.1566,213.1366,90.2253,269.8905,0,U,68284,999,1530,.56849673E-3,.18881E-3,0
STARLINK-36725,2026-055Z,2026-06-17T09:27:51.162624,15.34406415,.00013906,53.1598,216.3274,75.9108,284.2049,0,U,68285,999,1519,.32098006E-3,.10486E-3,0
STARLINK-36998,2026-055AA,2026-06-17T09:33:04.620960,15.34406044,.00013171,53.1582,214.1996,73.2354,286.8793,0,U,68286,999,1523,.39867575E-3,.1312E-3,0
